{
  "type": "FeatureCollection",
  "features": [
    {
      "type": "Feature",
      "properties": {
        "norad_id": 35703,
        "name": "COSMOS 2251 DEB",
        "group": "cosmos-2251-debris",
        "lat": 73.00241132073435,
        "lon": 169.5497867786318,
        "alt_km": 552.9674515790575,
        "timestamp": "2025-12-04T15:47:54.495718+00:00",
        "meta_object_name": "COSMOS 2251 DEB",
        "meta_object_id": "1993-036APY",
        "meta_epoch": "2025-12-03T11:58:43.085856",
        "meta_mean_motion": 14.90122639,
        "meta_eccentricity": 0.00654009,
        "meta_inclination": 74.0435,
        "meta_ra_of_asc_node": 61.2566,
        "meta_arg_of_pericenter": 134.2302,
        "meta_mean_anomaly": 226.4277,
        "meta_ephemeris_type": 0,
        "meta_classification_type": "U",
        "meta_norad_cat_id": 35703,
        "meta_element_set_no": 999,
        "meta_rev_at_epoch": 66478,
        "meta_bstar": 0.0011722584,
        "meta_mean_motion_dot": 0.00011791,
        "meta_mean_motion_ddot": 0,
        "tle_line1": "1 35703U 93036APY 25337.49910979  .00011791  00000+0  11723-2 0  9991",
        "tle_line2": "2 35703  74.0435  61.2566 0065400 134.2302 226.4277 14.90122639664787"
      },
      "geometry": {
        "type": "Point",
        "coordinates": [
          169.5497867786318,
          73.00241132073435
        ]
      }
    },
    {
      "type": "Feature",
      "properties": {
        "norad_id": 35705,
        "name": "COSMOS 2251 DEB",
        "group": "cosmos-2251-debris",
        "lat": 46.73497797743812,
        "lon": 168.7236278467854,
        "alt_km": 638.0470435708112,
        "timestamp": "2025-12-04T15:47:54.495728+00:00",
        "meta_object_name": "COSMOS 2251 DEB",
        "meta_object_id": "1993-036AQA",
        "meta_epoch": "2025-12-03T05:18:59.084352",
        "meta_mean_motion": 14.71707631,
        "meta_eccentricity": 0.0034156,
        "meta_inclination": 74.2742,
        "meta_ra_of_asc_node": 154.0557,
        "meta_arg_of_pericenter": 110.0272,
        "meta_mean_anomaly": 250.4584,
        "meta_ephemeris_type": 0,
        "meta_classification_type": "U",
        "meta_norad_cat_id": 35705,
        "meta_element_set_no": 999,
        "meta_rev_at_epoch": 85786,
        "meta_bstar": 0.0035867,
        "meta_mean_motion_dot": 0.00022615,
        "meta_mean_motion_ddot": 0,
        "tle_line1": "1 35705U 93036AQA 25337.22151718  .00022615  00000+0  35867-2 0  9994",
        "tle_line2": "2 35705  74.2742 154.0557 0034156 110.0272 250.4584 14.71707631857866"
      },
      "geometry": {
        "type": "Point",
        "coordinates": [
          168.7236278467854,
          46.73497797743812
        ]
      }
    },
    {
      "type": "Feature",
      "properties": {
        "norad_id": 35706,
        "name": "COSMOS 2251 DEB",
        "group": "cosmos-2251-debris",
        "lat": 23.698912619175683,
        "lon": -111.12915842678738,
        "alt_km": 787.7279045982041,
        "timestamp": "2025-12-04T15:47:54.495738+00:00",
        "meta_object_name": "COSMOS 2251 DEB",
        "meta_object_id": "1993-036AQB",
        "meta_epoch": "2025-12-01T13:14:17.826144",
        "meta_mean_motion": 13.65877076,
        "meta_eccentricity": 0.03419141,
        "meta_inclination": 73.888,
        "meta_ra_of_asc_node": 81.2903,
        "meta_arg_of_pericenter": 133.1878,
        "meta_mean_anomaly": 229.8353,
        "meta_ephemeris_type": 0,
        "meta_classification_type": "U",
        "meta_norad_cat_id": 35706,
        "meta_element_set_no": 999,
        "meta_rev_at_epoch": 61909,
        "meta_bstar": 0.0013112957,
        "meta_mean_motion_dot": 1.587e-05,
        "meta_mean_motion_ddot": 0,
        "tle_line1": "1 35706U 93036AQB 25335.55159521  .00001587  00000+0  13113-2 0  9994",
        "tle_line2": "2 35706  73.8880  81.2903 0341914 133.1878 229.8353 13.65877076619090"
      },
      "geometry": {
        "type": "Point",
        "coordinates": [
          -111.12915842678738,
          23.698912619175683
        ]
      }
    },
    {
      "type": "Feature",
      "properties": {
        "norad_id": 35711,
        "name": "COSMOS 2251 DEB",
        "group": "cosmos-2251-debris",
        "lat": -72.00565407504675,
        "lon": 117.68809802489527,
        "alt_km": 674.3586678901675,
        "timestamp": "2025-12-04T15:47:54.495749+00:00",
        "meta_object_name": "COSMOS 2251 DEB",
        "meta_object_id": "1993-036AQG",
        "meta_epoch": "2025-12-03T10:42:59.376384",
        "meta_mean_motion": 14.6375433,
        "meta_eccentricity": 0.00851107,
        "meta_inclination": 74.0469,
        "meta_ra_of_asc_node": 238.2893,
        "meta_arg_of_pericenter": 341.5514,
        "meta_mean_anomaly": 18.2571,
        "meta_ephemeris_type": 0,
        "meta_classification_type": "U",
        "meta_norad_cat_id": 35711,
        "meta_element_set_no": 999,
        "meta_rev_at_epoch": 87635,
        "meta_bstar": 0.00046916843,
        "meta_mean_motion_dot": 2.545e-05,
        "meta_mean_motion_ddot": 0,
        "tle_line1": "1 35711U 93036AQG 25337.44652056  .00002545  00000+0  46917-3 0  9995",
        "tle_line2": "2 35711  74.0469 238.2893 0085110 341.5514  18.2571 14.63754330876351"
      },
      "geometry": {
        "type": "Point",
        "coordinates": [
          117.68809802489527,
          -72.00565407504675
        ]
      }
    },
    {
      "type": "Feature",
      "properties": {
        "norad_id": 35716,
        "name": "COSMOS 2251 DEB",
        "group": "cosmos-2251-debris",
        "lat": 73.98108769940357,
        "lon": -59.34130617805466,
        "alt_km": 635.685204639647,
        "timestamp": "2025-12-04T15:47:54.495760+00:00",
        "meta_object_name": "COSMOS 2251 DEB",
        "meta_object_id": "1993-036AQM",
        "meta_epoch": "2025-12-02T22:21:42.031872",
        "meta_mean_motion": 14.60067337,
        "meta_eccentricity": 0.00884366,
        "meta_inclination": 73.9934,
        "meta_ra_of_asc_node": 212.9707,
        "meta_arg_of_pericenter": 56.5126,
        "meta_mean_anomaly": 321.7811,
        "meta_ephemeris_type": 0,
        "meta_classification_type": "U",
        "meta_norad_cat_id": 35716,
        "meta_element_set_no": 999,
        "meta_rev_at_epoch": 87484,
        "meta_bstar": 0.00016847867,
        "meta_mean_motion_dot": 8.23e-06,
        "meta_mean_motion_ddot": 0,
        "tle_line1": "1 35716U 93036AQM 25336.93173648  .00000823  00000+0  16848-3 0  9995",
        "tle_line2": "2 35716  73.9934 212.9707 0088436  56.5126 321.7811 14.60067337874842"
      },
      "geometry": {
        "type": "Point",
        "coordinates": [
          -59.34130617805466,
          73.98108769940357
        ]
      }
    },
    {
      "type": "Feature",
      "properties": {
        "norad_id": 35717,
        "name": "COSMOS 2251 DEB",
        "group": "cosmos-2251-debris",
        "lat": 48.97416399011153,
        "lon": 33.23506107746131,
        "alt_km": 713.5075003147331,
        "timestamp": "2025-12-04T15:47:54.495771+00:00",
        "meta_object_name": "COSMOS 2251 DEB",
        "meta_object_id": "1993-036AQN",
        "meta_epoch": "2025-12-03T10:50:01.737600",
        "meta_mean_motion": 14.38379287,
        "meta_eccentricity": 0.00765766,
        "meta_inclination": 74.1608,
        "meta_ra_of_asc_node": 234.4851,
        "meta_arg_of_pericenter": 96.9396,
        "meta_mean_anomaly": 264.0477,
        "meta_ephemeris_type": 0,
        "meta_classification_type": "U",
        "meta_norad_cat_id": 35717,
        "meta_element_set_no": 999,
        "meta_rev_at_epoch": 73966,
        "meta_bstar": 0.0017319634,
        "meta_mean_motion_dot": 5.441e-05,
        "meta_mean_motion_ddot": 0,
        "tle_line1": "1 35717U 93036AQN 25337.45140900  .00005441  00000+0  17320-2 0  9995",
        "tle_line2": "2 35717  74.1608 234.4851 0076576  96.9396 264.0477 14.38379287739664"
      },
      "geometry": {
        "type": "Point",
        "coordinates": [
          33.23506107746131,
          48.97416399011153
        ]
      }
    },
    {
      "type": "Feature",
      "properties": {
        "norad_id": 35718,
        "name": "COSMOS 2251 DEB",
        "group": "cosmos-2251-debris",
        "lat": 68.82588105143006,
        "lon": -166.72415573946375,
        "alt_km": 663.2936167439657,
        "timestamp": "2025-12-04T15:47:54.495782+00:00",
        "meta_object_name": "COSMOS 2251 DEB",
        "meta_object_id": "1993-036AQP",
        "meta_epoch": "2025-11-28T18:49:36.496416",
        "meta_mean_motion": 14.68279459,
        "meta_eccentricity": 0.00123436,
        "meta_inclination": 74.0315,
        "meta_ra_of_asc_node": 156.9668,
        "meta_arg_of_pericenter": 206.7375,
        "meta_mean_anomaly": 153.316,
        "meta_ephemeris_type": 0,
        "meta_classification_type": "U",
        "meta_norad_cat_id": 35718,
        "meta_element_set_no": 999,
        "meta_rev_at_epoch": 65635,
        "meta_bstar": 0.0013999458,
        "meta_mean_motion_dot": 8.062e-05,
        "meta_mean_motion_ddot": 0,
        "tle_line1": "1 35718U 93036AQP 25332.78445019  .00008062  00000+0  13999-2 0  9996",
        "tle_line2": "2 35718  74.0315 156.9668 0012343 206.7375 153.3160 14.68279459656359"
      },
      "geometry": {
        "type": "Point",
        "coordinates": [
          -166.72415573946375,
          68.82588105143006
        ]
      }
    }
  ]
}